OBJECT_NAME,OBJECT_ID,EPOCH,MEAN_MOTION,ECCENTRICITY,INCLINATION,RA_OF_ASC_NODE,ARG_OF_PERICENTER,MEAN_ANOMALY,EPHEMERIS_TYPE,CLASSIFICATION_TYPE,NORAD_CAT_ID,ELEMENT_SET_NO,REV_AT_EPOCH,BSTAR,MEAN_MOTION_DOT,MEAN_MOTION_DDOT
QIANFAN-132,2026-104F,2026-06-04T15:33:31.334112,14.18146919,.0004924,88.9863,343.0510,136.0434,224.1147,0,U,69078,999,330,.49958E-4,.117E-5,0
QIANFAN-133,2026-104G,2026-06-04T16:53:33.148896,14.19028697,.0004465,88.9863,343.0406,145.8882,214.2595,0,U,69079,999,331,.49236E-4,.117E-5,0
QIANFAN-134,2026-104H,2026-06-04T16:45:57.934080,14.19324171,.0005387,88.9863,343.0398,130.3692,229.7968,0,U,69080,999,331,.50225E-4,.12E-5,0
QIANFAN-135,2026-104J,2026-06-04T16:39:23.313312,14.19621652,.0004284,88.9863,343.0393,157.9350,202.2025,0,U,69081,999,331,.48428E-4,.117E-5,0
QIANFAN-136,2026-104K,2026-06-04T16:33:53.533152,14.19913967,.0004732,88.9862,343.0384,146.0273,214.1220,0,U,69082,999,331,.51856E-4,.124E-5,0
QIANFAN-137,2026-104L,2026-06-04T16:58:25.802112,14.25196283,.0005432,88.9862,343.0222,139.4719,220.6879,0,U,69083,999,332,.45916E-4,.122E-5,0
QIANFAN-138,2026-104M,2026-06-04T17:59:28.796640,14.20801505,.0004286,88.9863,343.0288,147.6423,212.5031,0,U,69084,999,332,.4759E-4,.117E-5,0
QIANFAN-139,2026-104N,2026-06-04T17:52:55.851168,14.21102325,.0004237,88.9863,343.0281,138.1193,222.0322,0,U,69085,999,332,.5569E-4,.135E-5,0
QIANFAN-140,2026-104P,2026-06-04T17:46:49.611072,14.21391854,.0004273,88.9863,343.0274,142.4034,217.7456,0,U,69086,999,332,.47969E-4,.119E-5,0
QIANFAN-141,2026-104Q,2026-06-04T15:59:51.720576,14.21633250,.0003895,88.9863,343.0349,138.5383,221.6104,0,U,69087,999,331,.46418E-4,.116E-5,0
QIANFAN-142,2026-104R,2026-06-04T17:34:19.316064,14.21952093,.0005141,88.9863,343.0259,130.3675,229.7965,0,U,69088,999,332,.49564E-4,.124E-5,0
QIANFAN-143,2026-104S,2026-06-04T15:36:30.810240,14.23170644,.000443,88.9862,343.0323,132.2945,227.8623,0,U,69089,999,331,.4926E-4,.126E-5,0
QIANFAN-144,2026-104T,2026-06-04T17:25:12.717696,14.22581427,.0003827,88.9863,343.0251,123.3743,236.7815,0,U,69090,999,332,.5008E-4,.126E-5,0
ZHUQUE-2E R/B,2026-105A,2026-06-04T07:47:33.782784,15.13421965,.04637519,88.9715,196.0176,347.5399,11.4674,0,U,69095,999,320,.48363032E-3,.196409E-2,-.779486E-6
2026-106A,2026-106A,2026-06-04T15:09:10.862208,15.11037132,.0013466,97.5095,237.9434,203.5034,156.5582,0,U,69097,999,308,.54389E-3,.9052E-4,0
2026-106B,2026-106B,2026-06-04T15:16:55.542144,15.09575067,.0014267,97.5082,237.9319,199.5733,160.4950,0,U,69098,999,308,.42602E-3,.6796E-4,0
2026-106C,2026-106C,2026-06-04T15:08:24.576864,15.11076088,.0013555,97.5097,237.9445,204.3760,155.6830,0,U,69099,999,308,.53278E-3,.8876E-4,0
2026-106D,2026-106D,2026-06-04T15:05:56.170176,15.11202473,.0013123,97.5062,237.9411,207.0214,153.0334,0,U,69100,999,308,.49447E-3,.826E-4,0
2026-106E,2026-106E,2026-06-04T15:00:25.283232,15.11460406,.0015124,97.5073,237.9467,208.9127,151.1267,0,U,69101,999,308,.54175E-3,.9128E-4,0
DRAGON CRS-34,2026-107A,2026-06-04T17:47:31.539264,15.49603626,.0007031,51.6329,1.7083,132.5880,227.5702,0,U,69103,999,57015,.15298E-3,.8168E-4,0
QIANFAN-145,2026-108A,2026-06-04T16:37:59.508768,14.16075534,.0015369,89.0120,23.6121,152.8450,207.3545,0,U,69104,999,257,.17056E-3,.351E-5,0
QIANFAN-146,2026-108B,2026-06-04T16:58:32.976768,14.23383159,.001567,89.0123,23.5963,151.4263,208.7791,0,U,69105,999,258,.17112E-3,.403E-5,0
QIANFAN-147,2026-108C,2026-06-04T16:20:52.086624,14.17032295,.0015366,89.0119,23.6101,149.9452,210.2621,0,U,69106,999,257,.16672E-3,.35E-5,0
QIANFAN-148,2026-108D,2026-06-04T16:13:00.873984,14.17401426,.0015849,89.0120,23.6095,154.9779,205.2182,0,U,69107,999,257,.16375E-3,.346E-5,0
QIANFAN-149,2026-108E,2026-06-04T16:10:05.401632,14.17855950,.0015499,89.0123,23.6096,154.2252,205.9713,0,U,69108,999,257,.16632E-3,.354E-5,0
QIANFAN-150,2026-108F,2026-06-04T15:59:06.114336,14.18304449,.0015519,89.0123,23.6086,156.0028,204.1887,0,U,69109,999,257,.16062E-3,.345E-5,0
QIANFAN-151,2026-108G,2026-06-04T15:52:11.433216,14.18800058,.0015633,89.0123,23.6077,154.5364,205.6599,0,U,69110,999,257,.17056E-3,.369E-5,0
QIANFAN-152,2026-108H,2026-06-04T15:46:45.352704,14.19417379,.0014851,89.0121,23.6070,154.4391,205.7536,0,U,69111,999,257,.16534E-3,.362E-5,0
QIANFAN-153,2026-108J,2026-06-04T17:21:26.669376,14.19640554,.0016068,89.0119,23.5981,154.2274,205.9720,0,U,69112,999,258,.15798E-3,.348E-5,0
