QIANFAN-132             
1 69078U 26104F   26155.64827933  .00000117  00000+0  49958-4 0  9991
2 69078  88.9863 343.0510 0004924 136.0434 224.1147 14.18146919  3301
QIANFAN-133             
1 69079U 26104G   26155.70385589  .00000117  00000+0  49236-4 0  9994
2 69079  88.9863 343.0406 0004465 145.8882 214.2595 14.19028697  3312
QIANFAN-134             
1 69080U 26104H   26155.69858720  .00000120  00000+0  50225-4 0  9990
2 69080  88.9863 343.0398 0005387 130.3692 229.7968 14.19324171  3317
QIANFAN-135             
1 69081U 26104J   26155.69401983  .00000117  00000+0  48428-4 0  9994
2 69081  88.9863 343.0393 0004284 157.9350 202.2025 14.19621652  3318
QIANFAN-136             
1 69082U 26104K   26155.69020293  .00000124  00000+0  51856-4 0  9993
2 69082  88.9862 343.0384 0004732 146.0273 214.1220 14.19913967  3311
QIANFAN-137             
1 69083U 26104L   26155.70724308  .00000122  00000+0  45916-4 0  9992
2 69083  88.9862 343.0222 0005432 139.4719 220.6879 14.25196283  3326
QIANFAN-138             
1 69084U 26104M   26155.74963885  .00000117  00000+0  47590-4 0  9996
2 69084  88.9863 343.0288 0004286 147.6423 212.5031 14.20801505  3324
QIANFAN-139             
1 69085U 26104N   26155.74509087  .00000135  00000+0  55690-4 0  9997
2 69085  88.9863 343.0281 0004237 138.1193 222.0322 14.21102325  3327
QIANFAN-140             
1 69086U 26104P   26155.74085198  .00000119  00000+0  47969-4 0  9992
2 69086  88.9863 343.0274 0004273 142.4034 217.7456 14.21391854  3328
QIANFAN-141             
1 69087U 26104Q   26155.66657084  .00000116  00000+0  46418-4 0  9998
2 69087  88.9863 343.0349 0003895 138.5383 221.6104 14.21633250  3316
QIANFAN-142             
1 69088U 26104R   26155.73216801  .00000124  00000+0  49564-4 0  9999
2 69088  88.9863 343.0259 0005141 130.3675 229.7965 14.21952093  3321
QIANFAN-143             
1 69089U 26104S   26155.65035660  .00000126  00000+0  49260-4 0  9998
2 69089  88.9862 343.0323 0004430 132.2945 227.8623 14.23170644  3319
QIANFAN-144             
1 69090U 26104T   26155.72584164  .00000126  00000+0  50080-4 0  9998
2 69090  88.9863 343.0251 0003827 123.3743 236.7815 14.22581427  3325
ZHUQUE-2E R/B           
1 69095U 26105A   26155.32469656  .00196409 -77949-6  48363-3 0  9992
2 69095  88.9715 196.0176 0463751 347.5399  11.4674 15.13421965  3200
2026-106A               
1 69097U 26106A   26155.63137572  .00009052  00000+0  54389-3 0  9996
2 69097  97.5095 237.9434 0013466 203.5034 156.5582 15.11037132  3084
2026-106B               
1 69098U 26106B   26155.63675396  .00006796  00000+0  42602-3 0  9995
2 69098  97.5082 237.9319 0014267 199.5733 160.4950 15.09575067  3087
2026-106C               
1 69099U 26106C   26155.63084001  .00008876  00000+0  53278-3 0  9995
2 69099  97.5097 237.9445 0013555 204.3760 155.6830 15.11076088  3083
2026-106D               
1 69100U 26106D   26155.62912234  .00008260  00000+0  49447-3 0  9995
2 69100  97.5062 237.9411 0013123 207.0214 153.0334 15.11202473  3086
2026-106E               
1 69101U 26106E   26155.62529263  .00009128  00000+0  54175-3 0  9990
2 69101  97.5073 237.9467 0015124 208.9127 151.1267 15.11460406  3082
DRAGON CRS-34           
1 69103U 26107A   26155.74133726  .00008168  00000+0  15298-3 0  9997
2 69103  51.6329   1.7083 0007031 132.5880 227.5702 15.49603626570159
QIANFAN-145             
1 69104U 26108A   26155.69304987  .00000351  00000+0  17056-3 0  9992
2 69104  89.0120  23.6121 0015369 152.8450 207.3545 14.16075534  2572
QIANFAN-146             
1 69105U 26108B   26155.70732612  .00000403  00000+0  17112-3 0  9996
2 69105  89.0123  23.5963 0015670 151.4263 208.7791 14.23383159  2583
QIANFAN-147             
1 69106U 26108C   26155.68115841  .00000350  00000+0  16672-3 0  9994
2 69106  89.0119  23.6101 0015366 149.9452 210.2621 14.17032295  2572
QIANFAN-148             
1 69107U 26108D   26155.67570456  .00000346  00000+0  16375-3 0  9996
2 69107  89.0120  23.6095 0015849 154.9779 205.2182 14.17401426  2573
QIANFAN-149             
1 69108U 26108E   26155.67367363  .00000354  00000+0  16632-3 0  9993
2 69108  89.0123  23.6096 0015499 154.2252 205.9713 14.17855950  2570
QIANFAN-150             
1 69109U 26108F   26155.66604299  .00000345  00000+0  16062-3 0  9992
2 69109  89.0123  23.6086 0015519 156.0028 204.1887 14.18304449  2570
QIANFAN-151             
1 69110U 26108G   26155.66124344  .00000369  00000+0  17056-3 0  9992
2 69110  89.0123  23.6077 0015633 154.5364 205.6599 14.18800058  2578
QIANFAN-152             
1 69111U 26108H   26155.65746936  .00000362  00000+0  16534-3 0  9992
2 69111  89.0121  23.6070 0014851 154.4391 205.7536 14.19417379  2573
QIANFAN-153             
1 69112U 26108J   26155.72322534  .00000348  00000+0  15798-3 0  9990
2 69112  89.0119  23.5981 0016068 154.2274 205.9720 14.19640554  2582
